[
  {
    "OBJECT_NAME": "STARLINK-1144",
    "OBJECT_ID": "20001V",
    "EPOCH": "2025-11-11T08:00:03.000384",
    "MEAN_MOTION": 15.63777087,
    "ECCENTRICITY": 0.0007165,
    "INCLINATION": 53.0422,
    "RA_OF_ASC_NODE": 88.4489,
    "ARG_OF_PERICENTER": 133.1435,
    "MEAN_ANOMALY": 194.4669,
    "EPHEMERIS_TYPE": 0,
    "CLASSIFICATION_TYPE": "U",
    "NORAD_CAT_ID": 44933,
    "ELEMENT_SET_NO": 999,
    "REV_AT_EPOCH": 595,
    "BSTAR": 0.0022186000000000003,
    "MEAN_MOTION_DOT": 0.00216837,
    "MEAN_MOTION_DDOT": 0.0,
    "TLE_LINE1": "1 44933U 20001V   25315.33336806  .00216837  00000+0  22186-2 0  9991",
    "TLE_LINE2": "2 44933  53.0422  88.4489 0007165 133.1435 194.4669 15.63777087  5950",
    "COMMENT": "Grouped by shell and plane from TLE"
  },
  {
    "OBJECT_NAME": "STARLINK-1734",
    "OBJECT_ID": "20062A",
    "EPOCH": "2025-11-11T08:00:03.000384",
    "MEAN_MOTION": 15.72553824,
    "ECCENTRICITY": 0.0004971,
    "INCLINATION": 53.0212,
    "RA_OF_ASC_NODE": 84.4404,
    "ARG_OF_PERICENTER": 171.82,
    "MEAN_ANOMALY": 130.4532,
    "EPHEMERIS_TYPE": 0,
    "CLASSIFICATION_TYPE": "U",
    "NORAD_CAT_ID": 46325,
    "ELEMENT_SET_NO": 999,
    "REV_AT_EPOCH": 590,
    "BSTAR": 0.0024668000000000003,
    "MEAN_MOTION_DOT": 0.0035082,
    "MEAN_MOTION_DDOT": 0.0,
    "TLE_LINE1": "1 46325U 20062A   25315.33336806  .00350820  00000+0  24668-2 0  9993",
    "TLE_LINE2": "2 46325  53.0212  84.4404 0004971 171.8200 130.4532 15.72553824  5903",
    "COMMENT": "Grouped by shell and plane from TLE"
  },
  {
    "OBJECT_NAME": "STARLINK-4465",
    "OBJECT_ID": "22099AH",
    "EPOCH": "2025-11-11T06:58:58.123200",
    "MEAN_MOTION": 15.78348113,
    "ECCENTRICITY": 0.0001155,
    "INCLINATION": 97.6526,
    "RA_OF_ASC_NODE": 84.2675,
    "ARG_OF_PERICENTER": 44.4427,
    "MEAN_ANOMALY": 315.6931,
    "EPHEMERIS_TYPE": 0,
    "CLASSIFICATION_TYPE": "U",
    "NORAD_CAT_ID": 53496,
    "ELEMENT_SET_NO": 999,
    "REV_AT_EPOCH": 17882,
    "BSTAR": 4.4104e-05,
    "MEAN_MOTION_DOT": 7.416e-05,
    "MEAN_MOTION_DDOT": 0.0,
    "TLE_LINE1": "1 53496U 22099AH  25315.29095050  .00007416  00000+0  44104-4 0  9999",
    "TLE_LINE2": "2 53496  97.6526  84.2675 0001155  44.4427 315.6931 15.78348113178828",
    "COMMENT": "Grouped by shell and plane from TLE"
  },
  {
    "OBJECT_NAME": "STARLINK-4461",
    "OBJECT_ID": "22099AQ",
    "EPOCH": "2025-11-11T07:43:39.635328",
    "MEAN_MOTION": 15.79015119,
    "ECCENTRICITY": 0.0001291,
    "INCLINATION": 97.6498,
    "RA_OF_ASC_NODE": 84.9805,
    "ARG_OF_PERICENTER": 354.7711,
    "MEAN_ANOMALY": 5.3541,
    "EPHEMERIS_TYPE": 0,
    "CLASSIFICATION_TYPE": "U",
    "NORAD_CAT_ID": 53503,
    "ELEMENT_SET_NO": 999,
    "REV_AT_EPOCH": 17887,
    "BSTAR": 5.3155e-05,
    "MEAN_MOTION_DOT": 9.245e-05,
    "MEAN_MOTION_DDOT": 0.0,
    "TLE_LINE1": "1 53503U 22099AQ  25315.32198652  .00009245  00000+0  53155-4 0  9992",
    "TLE_LINE2": "2 53503  97.6498  84.9805 0001291 354.7711   5.3541 15.79015119178874",
    "COMMENT": "Grouped by shell and plane from TLE"
  },
  {
    "OBJECT_NAME": "STARLINK-11201 [DTC]",
    "OBJECT_ID": "24118A",
    "EPOCH": "2025-11-11T02:28:26.519808",
    "MEAN_MOTION": 15.69717925,
    "ECCENTRICITY": 0.0001194,
    "INCLINATION": 53.159,
    "RA_OF_ASC_NODE": 86.1691,
    "ARG_OF_PERICENTER": 81.4742,
    "MEAN_ANOMALY": 278.6411,
    "EPHEMERIS_TYPE": 0,
    "CLASSIFICATION_TYPE": "U",
    "NORAD_CAT_ID": 60113,
    "ELEMENT_SET_NO": 999,
    "REV_AT_EPOCH": 7936,
    "BSTAR": 5.617600000000001e-06,
    "MEAN_MOTION_DOT": 9.2e-07,
    "MEAN_MOTION_DDOT": 0.0,
    "TLE_LINE1": "1 60113U 24118A   25315.10308472  .00000092  00000+0  56176-5 0  9998",
    "TLE_LINE2": "2 60113  53.1590  86.1691 0001194  81.4742 278.6411 15.69717925 79364",
    "COMMENT": "Grouped by shell and plane from TLE"
  },
  {
    "OBJECT_NAME": "STARLINK-11198 [DTC]",
    "OBJECT_ID": "24118B",
    "EPOCH": "2025-11-11T02:21:24.708096",
    "MEAN_MOTION": 15.696886,
    "ECCENTRICITY": 0.0002528,
    "INCLINATION": 53.1569,
    "RA_OF_ASC_NODE": 86.1372,
    "ARG_OF_PERICENTER": 83.8796,
    "MEAN_ANOMALY": 276.251,
    "EPHEMERIS_TYPE": 0,
    "CLASSIFICATION_TYPE": "U",
    "NORAD_CAT_ID": 60114,
    "ELEMENT_SET_NO": 999,
    "REV_AT_EPOCH": 7936,
    "BSTAR": 0.0,
    "MEAN_MOTION_DOT": -1.325e-05,
    "MEAN_MOTION_DDOT": 0.0,
    "TLE_LINE1": "1 60114U 24118B   25315.09820264 -.00001325  00000+0 -60695-5 0  9998",
    "TLE_LINE2": "2 60114  53.1569  86.1372 0002528  83.8796 276.2510 15.69688600 79365",
    "COMMENT": "Grouped by shell and plane from TLE"
  },
  {
    "OBJECT_NAME": "STARLINK-11112 [DTC]",
    "OBJECT_ID": "24118C",
    "EPOCH": "2025-11-10T18:35:57.128064",
    "MEAN_MOTION": 15.69652568,
    "ECCENTRICITY": 0.0001668,
    "INCLINATION": 53.158,
    "RA_OF_ASC_NODE": 87.6753,
    "ARG_OF_PERICENTER": 59.2029,
    "MEAN_ANOMALY": 300.9153,
    "EPHEMERIS_TYPE": 0,
    "CLASSIFICATION_TYPE": "U",
    "NORAD_CAT_ID": 60115,
    "ELEMENT_SET_NO": 999,
    "REV_AT_EPOCH": 7931,
    "BSTAR": 0.00028344000000000004,
    "MEAN_MOTION_DOT": 0.00033808,
    "MEAN_MOTION_DDOT": 0.0,
    "TLE_LINE1": "1 60115U 24118C   25314.77496676  .00033808  00000+0  28344-3 0  9991",
    "TLE_LINE2": "2 60115  53.1580  87.6753 0001668  59.2029 300.9153 15.69652568 79315",
    "COMMENT": "Grouped by shell and plane from TLE"
  },
  {
    "OBJECT_NAME": "STARLINK-11210 [DTC]",
    "OBJECT_ID": "24118D",
    "EPOCH": "2025-11-11T02:07:15.731328",
    "MEAN_MOTION": 15.6971237,
    "ECCENTRICITY": 0.0001773,
    "INCLINATION": 53.1553,
    "RA_OF_ASC_NODE": 86.0712,
    "ARG_OF_PERICENTER": 85.8541,
    "MEAN_ANOMALY": 274.2679,
    "EPHEMERIS_TYPE": 0,
    "CLASSIFICATION_TYPE": "U",
    "NORAD_CAT_ID": 60116,
    "ELEMENT_SET_NO": 999,
    "REV_AT_EPOCH": 7936,
    "BSTAR": 0.0,
    "MEAN_MOTION_DOT": -8.19e-06,
    "MEAN_MOTION_DDOT": 0.0,
    "TLE_LINE1": "1 60116U 24118D   25315.08837652 -.00000819  00000+0 -18951-5 0  9993",
    "TLE_LINE2": "2 60116  53.1553  86.0712 0001773  85.8541 274.2679 15.69712370 79364",
    "COMMENT": "Grouped by shell and plane from TLE"
  },
  {
    "OBJECT_NAME": "STARLINK-11203 [DTC]",
    "OBJECT_ID": "24118E",
    "EPOCH": "2025-11-11T02:00:11.792448",
    "MEAN_MOTION": 15.69703316,
    "ECCENTRICITY": 0.0001543,
    "INCLINATION": 53.158,
    "RA_OF_ASC_NODE": 86.0385,
    "ARG_OF_PERICENTER": 85.4299,
    "MEAN_ANOMALY": 274.6895,
    "EPHEMERIS_TYPE": 0,
    "CLASSIFICATION_TYPE": "U",
    "NORAD_CAT_ID": 60117,
    "ELEMENT_SET_NO": 999,
    "REV_AT_EPOCH": 7936,
    "BSTAR": 1.1088000000000001e-05,
    "MEAN_MOTION_DOT": 7.54e-06,
    "MEAN_MOTION_DDOT": 0.0,
    "TLE_LINE1": "1 60117U 24118E   25315.08346982  .00000754  00000+0  11088-4 0  9994",
    "TLE_LINE2": "2 60117  53.1580  86.0385 0001543  85.4299 274.6895 15.69703316 79366",
    "COMMENT": "Grouped by shell and plane from TLE"
  },
  {
    "OBJECT_NAME": "STARLINK-11177 [DTC]",
    "OBJECT_ID": "24118F",
    "EPOCH": "2025-11-11T01:53:07.680768",
    "MEAN_MOTION": 15.69713495,
    "ECCENTRICITY": 0.0001063,
    "INCLINATION": 53.1576,
    "RA_OF_ASC_NODE": 86.0053,
    "ARG_OF_PERICENTER": 89.2096,
    "MEAN_ANOMALY": 270.9044,
    "EPHEMERIS_TYPE": 0,
    "CLASSIFICATION_TYPE": "U",
    "NORAD_CAT_ID": 60118,
    "ELEMENT_SET_NO": 999,
    "REV_AT_EPOCH": 7936,
    "BSTAR": 6.179200000000001e-06,
    "MEAN_MOTION_DOT": 1.6e-06,
    "MEAN_MOTION_DDOT": 0.0,
    "TLE_LINE1": "1 60118U 24118F   25315.07856112  .00000160  00000+0  61792-5 0  9994",
    "TLE_LINE2": "2 60118  53.1576  86.0053 0001063  89.2096 270.9044 15.69713495 79362",
    "COMMENT": "Grouped by shell and plane from TLE"
  },
  {
    "OBJECT_NAME": "STARLINK-11127 [DTC]",
    "OBJECT_ID": "24118G",
    "EPOCH": "2025-11-11T01:46:03.169056",
    "MEAN_MOTION": 15.69724002,
    "ECCENTRICITY": 0.0001275,
    "INCLINATION": 53.1585,
    "RA_OF_ASC_NODE": 85.9706,
    "ARG_OF_PERICENTER": 84.4577,
    "MEAN_ANOMALY": 275.6586,
    "EPHEMERIS_TYPE": 0,
    "CLASSIFICATION_TYPE": "U",
    "NORAD_CAT_ID": 60119,
    "ELEMENT_SET_NO": 999,
    "REV_AT_EPOCH": 7936,
    "BSTAR": 1.3625e-05,
    "MEAN_MOTION_DOT": 1.063e-05,
    "MEAN_MOTION_DDOT": 0.0,
    "TLE_LINE1": "1 60119U 24118G   25315.07364779  .00001063  00000+0  13625-4 0  9992",
    "TLE_LINE2": "2 60119  53.1585  85.9706 0001275  84.4577 275.6586 15.69724002 79361",
    "COMMENT": "Grouped by shell and plane from TLE"
  },
  {
    "OBJECT_NAME": "STARLINK-11164 [DTC]",
    "OBJECT_ID": "24118H",
    "EPOCH": "2025-11-10T08:50:28.718880",
    "MEAN_MOTION": 15.6971319,
    "ECCENTRICITY": 0.0001023,
    "INCLINATION": 53.1596,
    "RA_OF_ASC_NODE": 89.3933,
    "ARG_OF_PERICENTER": 80.9273,
    "MEAN_ANOMALY": 279.1861,
    "EPHEMERIS_TYPE": 0,
    "CLASSIFICATION_TYPE": "U",
    "NORAD_CAT_ID": 60120,
    "ELEMENT_SET_NO": 999,
    "REV_AT_EPOCH": 7925,
    "BSTAR": 9.1849e-06,
    "MEAN_MOTION_DOT": 5.24e-06,
    "MEAN_MOTION_DDOT": 0.0,
    "TLE_LINE1": "1 60120U 24118H   25314.36838795  .00000524  00000+0  91849-5 0  9995",
    "TLE_LINE2": "2 60120  53.1596  89.3933 0001023  80.9273 279.1861 15.69713190 79259",
    "COMMENT": "Grouped by shell and plane from TLE"
  },
  {
    "OBJECT_NAME": "STARLINK-11119 [DTC]",
    "OBJECT_ID": "24118J",
    "EPOCH": "2025-11-10T16:07:42.437280",
    "MEAN_MOTION": 15.69689171,
    "ECCENTRICITY": 0.0001586,
    "INCLINATION": 53.1576,
    "RA_OF_ASC_NODE": 87.7258,
    "ARG_OF_PERICENTER": 85.2833,
    "MEAN_ANOMALY": 274.8366,
    "EPHEMERIS_TYPE": 0,
    "CLASSIFICATION_TYPE": "U",
    "NORAD_CAT_ID": 60121,
    "ELEMENT_SET_NO": 999,
    "REV_AT_EPOCH": 7930,
    "BSTAR": 4.4888e-05,
    "MEAN_MOTION_DOT": 4.847e-05,
    "MEAN_MOTION_DDOT": 0.0,
    "TLE_LINE1": "1 60121U 24118J   25314.67201895  .00004847  00000+0  44888-4 0  9997",
    "TLE_LINE2": "2 60121  53.1576  87.7258 0001586  85.2833 274.8366 15.69689171 79303",
    "COMMENT": "Grouped by shell and plane from TLE"
  }
]